#aV2024  1  8  0  0  0.00000000     288 DD+AD WGS84 FIT  NGA
## 2296  86400.00000000   300.00000000 60317 0.0000000000000
+   31     1  2  3  4  5  6  7  8  9 10 11 12 13 14 15 16 17
+         18 19 20 21 22 23 24 25 26 28 29 30 31 32  0  0  0
+          0  0  0  0  0  0  0  0  0  0  0  0  0  0  0  0  0
+          0  0  0  0  0  0  0  0  0  0  0  0  0  0  0  0  0
+          0  0  0  0  0  0  0  0  0  0  0  0  0  0  0  0  0
++         2  2  2  2  2  2  2  2  2  2  2  2  2  2  2  2  2
++         2  2  2  2  2  2  2  2  2  2  2  2  2  2  0  0  0
++         0  0  0  0  0  0  0  0  0  0  0  0  0  0  0  0  0
++         0  0  0  0  0  0  0  0  0  0  0  0  0  0  0  0  0
++         0  0  0  0  0  0  0  0  0  0  0  0  0  0  0  0  0
%c cc cc ccc ccc cccc cccc cccc cccc ccccc ccccc ccccc ccccc
%c cc cc ccc ccc cccc cccc cccc cccc ccccc ccccc ccccc ccccc
%f  0.0000000  0.000000000  0.00000000000  0.000000000000000
%f  0.0000000  0.000000000  0.00000000000  0.000000000000000
%i    0    0    0    0      0      0      0      0         0
%i    0    0    0    0      0      0      0      0         0
/*      NGA, ST. LOUIS,MO.                                  
/*   EPHEMERIS COMPUTED FROM 2 DAYS OF DATA                 
/*   EPOCHA v9 SMOOTHER                                     
/*   G2296 IERS2010 SATIGS SATAPC                           
*  2024  1  8  4 25  0.00000000
P  1  19309.853558  13350.247703 -13107.510415    165.543374                    
V  1 -15741.568823  -2473.541800 -26090.492280      0.009371                    
P  2  13787.850154  13931.870345 -17533.318898   -504.079369                    
V  2 -23171.290000  -1391.153201 -18566.900494      0.055637                    
P  3  11622.492378  23168.066039   5933.362051    111.186576                    
V  3    470.941927   7913.476903 -30970.630616      0.260987                    
P  4   8326.760425  12976.397062  21624.328386    260.460759                    
V  4 -19357.377010  19449.216157  -4350.297252      0.098235                    
P  5  -5677.756979 -25312.967779   5295.633161   -157.142188                    
V  5   4864.757478   5601.151135  31052.241260     -0.014331                    
P  6  18390.156267  -7745.192974  17650.420649    452.167885                    
V  6  21388.553697   5925.990332 -19665.117733     -0.128795                    
P  7  26178.231826   5833.937550    330.247493    -31.931925                    
V  7   -421.732577   2733.139661  31199.590449     -0.094153                    
P  8   1329.212951  18810.179186 -18617.526640   -161.012419                    
V  8 -16582.103975  16927.892719  16409.033835     -0.019228                    
P  9  17439.490348   1203.563053  19929.263063     51.892479                    
V  9 -15732.686049  20081.461799  12442.113611      0.121060                    
P 10 -13097.940886   6865.584161 -21839.963730    -68.462040                    
V 10  -9053.864390 -26689.586683  -3250.530319     -0.015383                    
P 11   7318.519255 -13555.265185  21656.318301   -531.745041                    
V 11  26424.885259   7364.524799  -4372.459923     -0.142579                    
P 12 -10092.837615 -23852.446444   5773.748640   -465.668812                    
V 12    683.154270  -8085.654572 -30632.061846     -0.038667                    
P 13   9682.574848 -20497.105743 -13862.446799    613.705582                    
V 13  14581.664194  -9580.359426  24923.821034      0.037463                    
P 14  15299.405666  -2855.649338 -21507.160092    292.773661                    
V 14   7651.007298  26316.188944   1767.256701      0.103147                    
P 15  -3743.608035 -19085.106198 -18486.680351    115.019055                    
V 15  14078.023524 -17849.307323  16214.581224      0.038636                    
P 16  -1898.318540  23976.695345  10411.335596   -388.540931                    
V 16  -5885.704174 -12864.994594  28141.089994      0.076295                    
P 17  21570.096578 -10911.942874 -10738.820683    720.381425                    
V 17  -8618.824477  11515.182900 -27757.179863     -0.008497                    
P 18 -26163.055463  -4782.147499  -1836.181249   -526.733130                    
V 18  -1770.063096  -2701.074063  31816.721327     -0.093910                    
P 19  20760.757298 -16033.444235  -2862.397875    423.535092                    
V 19   -696.143975   4365.197105 -31925.313586      0.052583                    
P 20   2851.853549 -20381.284082  16942.786147    392.626234                    
V 20  11612.274929  18020.905049  19619.813768     -0.019050                    
P 21   9834.993752  14874.702801 -19480.930373    139.101674                    
V 21 -25452.271303  -2233.098666 -13258.378802     -0.012003                    
P 22  11977.856929 -11421.300155 -20404.505233     52.008203                    
V 22   6752.623387  25973.312874 -10072.759923     -0.065680                    
P 23 -16531.583521  -6851.769842 -19670.449681    131.123433                    
V 23  -7482.417501 -23781.381148  14373.969440      0.073672                    
P 24 -12481.453887 -15196.718359 -18440.227798   -409.630632                    
V 24  22573.675677   1033.268920 -16079.353683     -0.073832                    
P 25 -16123.335311 -15227.040287  14479.595113    484.483347                    
V 25  -4005.884872 -18586.160971 -23196.931228      0.013640                    
P 26  -7215.992694  17770.288293  18077.634551    202.323369                    
V 26 -10941.003771 -20884.499064  16402.680637     -0.034467                    
P 28 -20511.744983   7174.641936  15243.170456    -92.328731                    
V 28 -18750.190376  -5383.150637 -22664.845175     -0.111024                    
P 29 -16473.892244  -3550.766745  20507.603081   -608.971307                    
V 29  18300.699420 -18600.496422  11356.849713      0.004621                    
P 30  24562.755566  -2284.260834 -10065.065072   -448.072622                    
V 30  11984.025089   5694.795728  27348.209882      0.045653                    
P 31 -13079.635308  11471.692802  19969.905793   -227.155958                    
V 31 -24819.386176  -6866.670003 -11782.705191     -0.002400                    
P 32 -20471.718344  14451.954571  -8282.793903   -603.360275                    
V 32   5071.892068  -9984.617979 -29484.739731     -0.030342                    
EOF
